NORAD_CAT_ID,OBJECT_NAME,OBJECT_TYPE,EPOCH,MEAN_MOTION,ECCENTRICITY,INCLINATION,RA_OF_ASC_NODE,ARG_OF_PERICENTER,MEAN_ANOMALY,BSTAR,MEAN_MOTION_DOT,MEAN_MOTION_DDOT,TLE_LINE0,TLE_LINE1,TLE_LINE2,SEMIMAJOR_AXIS,PERIOD,APOGEE,PERIGEE,DECAYED
53826.0,STARLINK-4756,PAYLOAD,2024-02-26 22:38:10,15.08832369,0.0001519,53.2185,33.8974,78.856,281.2603,1.8663e-05,9e-08,0.0,0 STARLINK-4756,1 53826U 22114J   24057.94318251  .00000009  00000-0  18663-4 0  9992,2 53826  53.2185  33.8974 0001519  78.8560 281.2603 15.08832369 80852,6917.904,95.438,540.82,538.718,0.0
53826.0,STARLINK-4756,PAYLOAD,2024-02-27 03:24:20,15.08828459,0.000139,53.219,33.004,88.1396,271.9755,3.6311e-06,-2.3e-06,0.0,0 STARLINK-4756,1 53826U 22114J   24058.14190557 -.00000230  00000-0  36311-5 0  9990,2 53826  53.2190  33.0040 0001390  88.1396 271.9755 15.08828459 80345,6917.916,95.438,540.742,538.819,0.0
53826.0,STARLINK-4756,PAYLOAD,2024-02-27 08:10:29,15.08837064,0.0001483,53.2195,32.1097,103.6927,256.423,-5.0458e-05,-1.091e-05,0.0,0 STARLINK-4756,1 53826U 22114J   24058.34062157 -.00001091  00000-0 -50458-4 0  9990,2 53826  53.2195  32.1097 0001483 103.6927 256.4230 15.08837064 80379,6917.889,95.438,540.78,538.728,0.0
53826.0,STARLINK-4756,PAYLOAD,2024-02-27 22:28:57,15.08836808,0.0001761,53.2187,29.4327,109.4918,250.6265,-2.6089e-05,-7.03e-06,0.0,0 STARLINK-4756,1 53826U 22114J   24058.93678147 -.00000703  00000-0 -26089-4 0  9999,2 53826  53.2187  29.4327 0001761 109.4918 250.6265 15.08836808 81008,6917.89,95.438,540.973,538.537,0.0
53826.0,STARLINK-4756,PAYLOAD,2024-02-28 04:50:30,15.08842705,0.0001551,53.2181,28.245,92.7656,267.3513,3.7807e-05,3.14e-06,0.0,0 STARLINK-4756,1 53826U 22114J   24059.20173668  .00000314  00000-0  37807-4 0  9994,2 53826  53.2181  28.2450 0001551  92.7656 267.3513 15.08842705 80504,6917.872,95.437,540.81,538.664,0.0
53826.0,STARLINK-4756,PAYLOAD,2024-02-28 20:44:22,15.08829212,0.0001563,53.2196,25.2744,98.5792,261.5378,7.0073e-05,8.27e-06,0.0,0 STARLINK-4756,1 53826U 22114J   24059.86414545  .00000827  00000-0  70073-4 0  9999,2 53826  53.2196  25.2744 0001563  98.5792 261.5378 15.08829212 80605,6917.913,95.438,540.86,538.697,0.0
53826.0,STARLINK-4756,PAYLOAD,2024-02-29 14:13:36,15.08834323,0.0001419,53.218,22.0012,85.8853,274.2301,3.6878e-06,-2.29e-06,0.0,0 STARLINK-4756,1 53826U 22114J   24060.59278777 -.00000229  00000-0  36878-5 0  9999,2 53826  53.2180  22.0012 0001419  85.8853 274.2301 15.08834323 81256,6917.898,95.438,540.744,538.781,0.0
53826.0,STARLINK-4756,PAYLOAD,2024-03-01 02:56:41,15.08839881,0.000133,53.218,19.6211,89.0581,271.0564,8.2448e-07,-2.75e-06,0.0,0 STARLINK-4756,1 53826U 22114J   24061.12270611 -.00000275  00000-0  82448-6 0  9994,2 53826  53.2180  19.6211 0001330  89.0581 271.0564 15.08839881 80793,6917.881,95.438,540.666,538.826,0.0
53826.0,STARLINK-4756,PAYLOAD,2024-03-01 07:42:50,15.08844888,0.0001524,53.2183,18.7298,98.025,262.0915,0.00010404,1.368e-05,0.0,0 STARLINK-4756,1 53826U 22114J   24061.32141969  .00001368  00000-0  10404-3 0  9992,2 53826  53.2183  18.7298 0001524  98.0250 262.0915 15.08844888 81366,6917.865,95.437,540.785,538.676,0.0
53826.0,STARLINK-4756,PAYLOAD,2024-03-01 14:04:23,15.08844739,0.0001562,53.2193,17.5388,83.5903,276.5267,8.7732e-06,-1.48e-06,0.0,0 STARLINK-4756,1 53826U 22114J   24061.58638233 -.00000148  00000-0  87732-5 0  9991,2 53826  53.2193  17.5388 0001562  83.5903 276.5267 15.08844739 81400,6917.866,95.437,540.811,538.65,0.0
53826.0,STARLINK-4756,PAYLOAD,2024-03-02 02:47:28,15.08843243,0.0001863,53.2199,15.1595,109.8556,250.2637,2.0596e-05,4e-07,0.0,0 STARLINK-4756,1 53826U 22114J   24062.11630314  .00000040  00000-0  20596-4 0  9997,2 53826  53.2199  15.1595 0001863 109.8556 250.2637 15.08843243 80947,6917.87,95.437,541.024,538.447,0.0
53826.0,STARLINK-4756,PAYLOAD,2024-03-02 04:22:51,15.08844994,0.0001848,53.2197,14.8621,108.9654,251.1539,2.9092e-05,1.75e-06,0.0,0 STARLINK-4756,1 53826U 22114J   24062.18254166  .00000175  00000-0  29092-4 0  9990,2 53826  53.2197  14.8621 0001848 108.9654 251.1539 15.08844994 81499,6917.865,95.437,541.009,538.452,0.0
53826.0,STARLINK-4756,PAYLOAD,2024-03-03 04:13:38,15.08849303,0.0001414,53.2191,10.4031,107.2411,252.8736,1.5057e-05,-4.8e-07,0.0,0 STARLINK-4756,1 53826U 22114J   24063.17613786 -.00000048  00000-0  15057-4 0  9993,2 53826  53.2191  10.4031 0001414 107.2411 252.8736 15.08849303 81106,6917.852,95.437,540.695,538.739,0.0
53826.0,STARLINK-4756,PAYLOAD,2024-03-04 05:39:47,15.08856112,0.0001923,53.2208,5.6386,71.1837,288.9364,6.1349e-05,6.89e-06,0.0,0 STARLINK-4756,1 53826U 22114J   24064.23596901  .00000689  00000-0  61349-4 0  9995,2 53826  53.2208   5.6386 0001923  71.1837 288.9364 15.08856112 81260,6917.831,95.437,541.026,538.366,0.0
53826.0,STARLINK-4756,PAYLOAD,2024-03-04 19:58:17,15.08840079,0.0001594,53.2204,2.9686,112.8256,247.2905,-0.00012391,-2.26e-05,0.0,0 STARLINK-4756,1 53826U 22114J   24064.83214357 -.00002260  00000-0 -12391-3 0  9994,2 53826  53.2204   2.9686 0001594 112.8256 247.2905 15.08840079 81355,6917.88,95.438,540.848,538.642,0.0
53826.0,STARLINK-4756,PAYLOAD,2024-03-04 23:09:02,15.08847831,0.0001834,53.22,2.3728,116.9503,243.1677,-5.3351e-05,-1.137e-05,0.0,0 STARLINK-4756,1 53826U 22114J   24064.96461587 -.00001137  00000-0 -53351-4 0  9991,2 53826  53.2200   2.3728 0001834 116.9503 243.1677 15.08847831 81915,6917.856,95.437,540.99,538.453,0.0
53826.0,STARLINK-4756,PAYLOAD,2024-03-05 02:19:48,15.08849149,0.0001792,53.2204,1.7799,119.9447,240.1723,-4.1783e-05,-9.53e-06,0.0,0 STARLINK-4756,1 53826U 22114J   24065.09709404 -.00000953  00000-0 -41783-4 0  9990,2 53826  53.2204   1.7799 0001792 119.9447 240.1723 15.08849149 81398,6917.852,95.437,540.957,538.478,0.0
53826.0,STARLINK-4756,PAYLOAD,2024-03-05 05:30:34,15.08850984,0.000163,53.22,1.1824,119.7865,240.3289,-2.0523e-05,-6.15e-06,0.0,0 STARLINK-4756,1 53826U 22114J   24065.22957095 -.00000615  00000-0 -20523-4 0  9990,2 53826  53.2200   1.1824 0001630 119.7865 240.3289 15.08850984 81950,6917.847,95.437,540.839,538.584,0.0
53826.0,STARLINK-4756,PAYLOAD,2024-03-06 02:10:36,15.08838992,0.0001734,53.2195,357.3134,110.7765,249.3414,-0.00011493,-2.117e-05,0.0,0 STARLINK-4756,1 53826U 22114J   24066.09070477 -.00002117  00000-0 -11493-3 0  9990,2 53826  53.2195 357.3134 0001734 110.7765 249.3414 15.08838992 81547,6917.883,95.438,540.948,538.549,0.0
53826.0,STARLINK-4756,PAYLOAD,2024-03-06 05:21:23,15.08837907,0.0001766,53.2196,356.7196,111.0536,249.0645,-0.00012698,-2.308e-05,0.0,0 STARLINK-4756,1 53826U 22114J   24066.22318612 -.00002308  00000-0 -12698-3 0  9991,2 53826  53.2196 356.7196 0001766 111.0536 249.0645 15.08837907 82105,6917.887,95.438,540.973,538.53,0.0
53826.0,STARLINK-4756,PAYLOAD,2024-03-07 02:01:24,15.08827645,0.0001477,53.2185,352.862,100.723,259.3928,8.5529e-05,1.073e-05,0.0,0 STARLINK-4756,1 53826U 22114J   24067.08431197  .00001073  00000-0  85529-4 0  9990,2 53826  53.2185 352.8620 0001477 100.7230 259.3928 15.08827645 81696,6917.918,95.438,540.805,538.761,0.0
53826.0,STARLINK-4756,PAYLOAD,2024-03-07 11:33:43,15.0882212,0.0001477,53.2196,351.0764,112.0573,248.0576,0.00037815,5.733e-05,0.0,0 STARLINK-4756,1 53826U 22114J   24067.48174915  .00005733  00000-0  37815-3 0  9997,2 53826  53.2196 351.0764 0001477 112.0573 248.0576 15.08822120 82298,6917.935,95.439,540.822,538.778,0.0
53826.0,STARLINK-4756,PAYLOAD,2024-03-08 03:27:34,15.08833005,0.0001688,53.2202,348.1044,111.2951,248.8221,4.5925e-05,4.43e-06,0.0,0 STARLINK-4756,1 53826U 22114J   24068.14415508  .00000443  00000-0  45925-4 0  9992,2 53826  53.2202 348.1044 0001688 111.2951 248.8221 15.08833005 81859,6917.902,95.438,540.935,538.599,0.0
53826.0,STARLINK-4756,PAYLOAD,2024-03-08 11:24:29,15.08847784,0.0001343,53.2186,346.6157,83.0764,277.0381,0.00012624,1.722e-05,0.0,0 STARLINK-4756,1 53826U 22114J   24068.47534310  .00001722  00000-0  12624-3 0  9991,2 53826  53.2186 346.6157 0001343  83.0764 277.0381 15.08847784 81900,6917.857,95.437,540.651,538.793,0.0
53826.0,STARLINK-4756,PAYLOAD,2024-03-09 04:53:45,15.08836358,0.0001525,53.2196,343.3431,85.1521,274.9645,1.8297e-05,3e-08,0.0,0 STARLINK-4756,1 53826U 22114J   24069.20399781  .00000003  00000-0  18297-4 0  9998,2 53826  53.2196 343.3431 0001525  85.1521 274.9645 15.08836358 82013,6917.892,95.438,540.811,538.702,0.0
53826.0,STARLINK-4756,PAYLOAD,2024-03-09 11:15:17,15.08847055,0.0001554,53.2195,342.1553,89.4962,270.6208,5.1413e-05,5.3e-06,0.0,0 STARLINK-4756,1 53826U 22114J   24069.46895034  .00000530  00000-0  51413-4 0  9990,2 53826  53.2195 342.1553 0001554  89.4962 270.6208 15.08847055 82050,6917.859,95.437,540.799,538.649,0.0
53826.0,STARLINK-4756,PAYLOAD,2024-03-10 01:33:46,15.08837986,0.0001359,53.2188,339.4789,90.5692,269.5456,1.0963e-05,-1.13e-06,0.0,0 STARLINK-4756,1 53826U 22114J   24070.06511748 -.00000113  00000-0  10963-4 0  9998,2 53826  53.2188 339.4789 0001359  90.5692 269.5456 15.08837986 82142,6917.887,95.438,540.692,538.811,0.0
53826.0,STARLINK-4756,PAYLOAD,2024-03-10 11:06:03,15.08851944,0.0001525,53.2194,337.6898,87.3515,272.7651,0.00010716,1.418e-05,0.0,0 STARLINK-4756,1 53826U 22114J   24070.46254388  .00001418  00000-0  10716-3 0  9999,2 53826  53.2194 337.6898 0001525  87.3515 272.7651 15.08851944 82203,6917.844,95.437,540.764,538.654,0.0
53826.0,STARLINK-4756,PAYLOAD,2024-03-10 17:27:38,15.08818775,0.0001258,53.2199,336.5048,88.4329,271.6807,-3.569e-05,-8.55e-06,0.0,0 STARLINK-4756,1 53826U 22114J   24070.72752941 -.00000855  00000-0 -35690-4 0  9991,2 53826  53.2199 336.5048 0001258  88.4329 271.6807 15.08818775 82241,6917.945,95.439,540.681,538.94,0.0
53826.0,STARLINK-4756,PAYLOAD,2024-03-10 22:13:47,15.08828146,0.0001326,53.218,335.6143,82.257,277.8572,2.3515e-05,8.6e-07,0.0,0 STARLINK-4756,1 53826U 22114J   24070.92624139  .00000086  00000-0  23515-4 0  9997,2 53826  53.2180 335.6143 0001326  82.2570 277.8572 15.08828146 82816,6917.917,95.438,540.699,538.864,0.0
